{"type": "FeatureCollection", "features": [ {"type": "Feature", "properties": {"norad_id": 30173, "name": "FENGYUN 1C DEB", "group": "fengyun-1c-debris", "lat": -54.00163717161284, "lon": 82.73489529237341, "alt_km": 825.06276859834, "timestamp": "2025-12-25T09:48:52.564767+00:00", "meta": {"OBJECT_NAME": "FENGYUN 1C DEB", "OBJECT_ID": "1999-025UE", "EPOCH": "2025-12-24T16:05:39.568704", "MEAN_MOTION": 14.11448931, "ECCENTRICITY": 0.00814434, "INCLINATION": 98.9754, "RA_OF_ASC_NODE": 69.432, "ARG_OF_PERICENTER": 254.827, "MEAN_ANOMALY": 259.9024, "EPHEMERIS_TYPE": 0, "CLASSIFICATION_TYPE": "U", "NORAD_CAT_ID": 30173, "ELEMENT_SET_NO": 999, "REV_AT_EPOCH": 96717, "BSTAR": 0.0016354432, "MEAN_MOTION_DOT": 3.012e-05, "MEAN_MOTION_DDOT": 0}, "tle": {"line1": "1 30173U 99025UE  25358.67059686  .00003012  00000+0  16354-2 0  9995", "line2": "2 30173  98.9754  69.4320 0081443 254.8270 259.9024 14.11448931967177"}}, "geometry": {"type": "Point", "coordinates": [82.73489529237341, -54.00163717161284]}}, {"type": "Feature", "properties": {"norad_id": 30174, "name": "FENGYUN 1C DEB", "group": "fengyun-1c-debris", "lat": -78.95892177438735, "lon": -82.9077633199556, "alt_km": 633.2221225783305, "timestamp": "2025-12-25T09:48:52.564777+00:00", "meta": {"OBJECT_NAME": "FENGYUN 1C DEB", "OBJECT_ID": "1999-025UF", "EPOCH": "2025-12-24T16:29:47.827104", "MEAN_MOTION": 14.81765433, "ECCENTRICITY": 0.00187953, "INCLINATION": 98.7762, "RA_OF_ASC_NODE": 148.6501, "ARG_OF_PERICENTER": 5.8139, "MEAN_ANOMALY": 10.7085, "EPHEMERIS_TYPE": 0, "CLASSIFICATION_TYPE": "U", "NORAD_CAT_ID": 30174, "ELEMENT_SET_NO": 999, "REV_AT_EPOCH": 98545, "BSTAR": 0.0046204479, "MEAN_MOTION_DOT": 0.00036688, "MEAN_MOTION_DDOT": 0}, "tle": {"line1": "1 30174U 99025UF  25358.68735911  .00036688  00000+0  46204-2 0  9991", "line2": "2 30174  98.7762 148.6501 0018795   5.8139  10.7085 14.81765433985451"}}, "geometry": {"type": "Point", "coordinates": [-82.9077633199556, -78.95892177438735]}}, {"type": "Feature", "properties": {"norad_id": 30175, "name": "FENGYUN 1C DEB", "group": "fengyun-1c-debris", "lat": -36.48724601206689, "lon": -131.56775960295465, "alt_km": 870.9779677218276, "timestamp": "2025-12-25T09:48:52.564786+00:00", "meta": {"OBJECT_NAME": "FENGYUN 1C DEB", "OBJECT_ID": "1999-025UG", "EPOCH": "2025-12-24T03:37:02.875008", "MEAN_MOTION": 13.8387788, "ECCENTRICITY": 0.0146708, "INCLINATION": 99.3795, "RA_OF_ASC_NODE": 54.1986, "ARG_OF_PERICENTER": 182.3867, "MEAN_ANOMALY": 248.5245, "EPHEMERIS_TYPE": 0, "CLASSIFICATION_TYPE": "U", "NORAD_CAT_ID": 30175, "ELEMENT_SET_NO": 999, "REV_AT_EPOCH": 95498, "BSTAR": 0.00038267712, "MEAN_MOTION_DOT": 4.17e-06, "MEAN_MOTION_DDOT": 0}, "tle": {"line1": "1 30175U 99025UG  25358.15072772  .00000417  00000+0  38268-3 0  9996", "line2": "2 30175  99.3795  54.1986 0146708 182.3867 248.5245 13.83877880954982"}}, "geometry": {"type": "Point", "coordinates": [-131.56775960295465, -36.48724601206689]}}, {"type": "Feature", "properties": {"norad_id": 30177, "name": "FENGYUN 1C DEB", "group": "fengyun-1c-debris", "lat": 37.86163951670351, "lon": 128.4329495794154, "alt_km": 748.2718610506681, "timestamp": "2025-12-25T09:48:52.564796+00:00", "meta": {"OBJECT_NAME": "FENGYUN 1C DEB", "OBJECT_ID": "1999-025UJ", "EPOCH": "2025-12-24T19:19:35.005728", "MEAN_MOTION": 13.62849327, "ECCENTRICITY": 0.04521478, "INCLINATION": 98.628, "RA_OF_ASC_NODE": 301.1175, "ARG_OF_PERICENTER": 106.5966, "MEAN_ANOMALY": 311.7421, "EPHEMERIS_TYPE": 0, "CLASSIFICATION_TYPE": "U", "NORAD_CAT_ID": 30177, "ELEMENT_SET_NO": 999, "REV_AT_EPOCH": 93627, "BSTAR": 0.0011016468, "MEAN_MOTION_DOT": 1.685e-05, "MEAN_MOTION_DDOT": 0}, "tle": {"line1": "1 30177U 99025UJ  25358.80526627  .00001685  00000+0  11016-2 0  9992", "line2": "2 30177  98.6280 301.1175 0452147 106.5966 311.7421 13.62849327936278"}}, "geometry": {"type": "Point", "coordinates": [128.4329495794154, 37.86163951670351]}}, {"type": "Feature", "properties": {"norad_id": 30178, "name": "FENGYUN 1C DEB", "group": "fengyun-1c-debris", "lat": -26.347854551291572, "lon": 49.790170889171016, "alt_km": 1107.8569829830167, "timestamp": "2025-12-25T09:48:52.564806+00:00", "meta": {"OBJECT_NAME": "FENGYUN 1C DEB", "OBJECT_ID": "1999-025UK", "EPOCH": "2025-12-24T10:42:04.466592", "MEAN_MOTION": 13.58725066, "ECCENTRICITY": 0.02811405, "INCLINATION": 102.2607, "RA_OF_ASC_NODE": 234.7715, "ARG_OF_PERICENTER": 100.249, "MEAN_ANOMALY": 75.0722, "EPHEMERIS_TYPE": 0, "CLASSIFICATION_TYPE": "U", "NORAD_CAT_ID": 30178, "ELEMENT_SET_NO": 999, "REV_AT_EPOCH": 93330, "BSTAR": 0.0018983013, "MEAN_MOTION_DOT": 1.736e-05, "MEAN_MOTION_DDOT": 0}, "tle": {"line1": "1 30178U 99025UK  25358.44588503  .00001736  00000+0  18983-2 0  9991", "line2": "2 30178 102.2607 234.7715 0281140 100.2490  75.0722 13.58725066933304"}}, "geometry": {"type": "Point", "coordinates": [49.790170889171016, -26.347854551291572]}}, {"type": "Feature", "properties": {"norad_id": 30181, "name": "FENGYUN 1C DEB", "group": "fengyun-1c-debris", "lat": 33.48336433027099, "lon": -91.2885815942537, "alt_km": 820.5521641285186, "timestamp": "2025-12-25T09:48:52.564816+00:00", "meta": {"OBJECT_NAME": "FENGYUN 1C DEB", "OBJECT_ID": "1999-025UN", "EPOCH": "2025-12-24T18:35:09.636576", "MEAN_MOTION": 14.2932927, "ECCENTRICITY": 0.00401736, "INCLINATION": 98.8424, "RA_OF_ASC_NODE": 82.1577, "ARG_OF_PERICENTER": 323.4144, "MEAN_ANOMALY": 159.4303, "EPHEMERIS_TYPE": 0, "CLASSIFICATION_TYPE": "U", "NORAD_CAT_ID": 30181, "ELEMENT_SET_NO": 999, "REV_AT_EPOCH": 97683, "BSTAR": 0.001473253, "MEAN_MOTION_DOT": 3.739e-05, "MEAN_MOTION_DDOT": 0}, "tle": {"line1": "1 30181U 99025UN  25358.77441709  .00003739  00000+0  14733-2 0  9991", "line2": "2 30181  98.8424  82.1577 0040173 323.4144 159.4303 14.29329270976833"}}, "geometry": {"type": "Point", "coordinates": [-91.2885815942537, 33.48336433027099]}}, {"type": "Feature", "properties": {"norad_id": 30182, "name": "FENGYUN 1C DEB", "group": "fengyun-1c-debris", "lat": -45.81040721926093, "lon": 59.64645615014343, "alt_km": 867.9150817701302, "timestamp": "2025-12-25T09:48:52.564826+00:00", "meta": {"OBJECT_NAME": "FENGYUN 1C DEB", "OBJECT_ID": "1999-025UP", "EPOCH": "2025-12-24T15:42:43.327296", "MEAN_MOTION": 13.96460734, "ECCENTRICITY": 0.00744346, "INCLINATION": 99.0638, "RA_OF_ASC_NODE": 49.4526, "ARG_OF_PERICENTER": 350.0432, "MEAN_ANOMALY": 134.1003, "EPHEMERIS_TYPE": 0, "CLASSIFICATION_TYPE": "U", "NORAD_CAT_ID": 30182, "ELEMENT_SET_NO": 999, "REV_AT_EPOCH": 96474, "BSTAR": 0.00014514248, "MEAN_MOTION_DOT": 1.61e-06, "MEAN_MOTION_DDOT": 0}, "tle": {"line1": "1 30182U 99025UP  25358.65466814  .00000161  00000+0  14514-3 0  9997", "line2": "2 30182  99.0638  49.4526 0074434 350.0432 134.1003 13.96460734964745"}}, "geometry": {"type": "Point", "coordinates": [59.64645615014343, -45.81040721926093]}}, {"type": "Feature", "properties": {"norad_id": 30183, "name": "FENGYUN 1C DEB", "group": "fengyun-1c-debris", "lat": 44.643016310068944, "lon": -129.80542150155202, "alt_km": 843.6772239461297, "timestamp": "2025-12-25T09:48:52.564836+00:00", "meta": {"OBJECT_NAME": "FENGYUN 1C DEB", "OBJECT_ID": "1999-025UQ", "EPOCH": "2025-12-24T16:44:29.956416", "MEAN_MOTION": 14.12684857, "ECCENTRICITY": 0.00264646, "INCLINATION": 98.7874, "RA_OF_ASC_NODE": 40.7096, "ARG_OF_PERICENTER": 218.7793, "MEAN_ANOMALY": 260.3388, "EPHEMERIS_TYPE": 0, "CLASSIFICATION_TYPE": "U", "NORAD_CAT_ID": 30183, "ELEMENT_SET_NO": 999, "REV_AT_EPOCH": 97312, "BSTAR": 0.00049919273, "MEAN_MOTION_DOT": 8.85e-06, "MEAN_MOTION_DDOT": 0}, "tle": {"line1": "1 30183U 99025UQ  25358.69756894  .00000885  00000+0  49919-3 0  9992", "line2": "2 30183  98.7874  40.7096 0026464 218.7793 260.3388 14.12684857973123"}}, "geometry": {"type": "Point", "coordinates": [-129.80542150155202, 44.643016310068944]}}, {"type": "Feature", "properties": {"norad_id": 30191, "name": "FENGYUN 1C DEB", "group": "fengyun-1c-debris", "lat": 21.005831582983774, "lon": -104.88296281748937, "alt_km": 605.0887689441206, "timestamp": "2025-12-25T09:48:52.564846+00:00", "meta": {"OBJECT_NAME": "FENGYUN 1C DEB", "OBJECT_ID": "1999-025UY", "EPOCH": "2025-12-24T15:42:26.656416", "MEAN_MOTION": 14.78230041, "ECCENTRICITY": 0.00971652, "INCLINATION": 98.7741, "RA_OF_ASC_NODE": 70.8956, "ARG_OF_PERICENTER": 225.6847, "MEAN_ANOMALY": 241.3124, "EPHEMERIS_TYPE": 0, "CLASSIFICATION_TYPE": "U", "NORAD_CAT_ID": 30191, "ELEMENT_SET_NO": 999, "REV_AT_EPOCH": 451, "BSTAR": 0.0014223778, "MEAN_MOTION_DOT": 0.00011115, "MEAN_MOTION_DDOT": 0}, "tle": {"line1": "1 30191U 99025UY  25358.65447519  .00011115  00000+0  14224-2 0  9996", "line2": "2 30191  98.7741  70.8956 0097165 225.6847 241.3124 14.78230041  4516"}}, "geometry": {"type": "Point", "coordinates": [-104.88296281748937, 21.005831582983774]}}, {"type": "Feature", "properties": {"norad_id": 30193, "name": "FENGYUN 1C DEB", "group": "fengyun-1c-debris", "lat": -6.07839049417984, "lon": -90.96172423787154, "alt_km": 746.0548381666549, "timestamp": "2025-12-25T09:48:52.564856+00:00", "meta": {"OBJECT_NAME": "FENGYUN 1C DEB", "OBJECT_ID": "1999-025VA", "EPOCH": "2025-12-24T17:24:03.599424", "MEAN_MOTION": 14.49180856, "ECCENTRICITY": 0.01076049, "INCLINATION": 98.7567, "RA_OF_ASC_NODE": 267.3882, "ARG_OF_PERICENTER": 97.2086, "MEAN_ANOMALY": 292.089, "EPHEMERIS_TYPE": 0, "CLASSIFICATION_TYPE": "U", "NORAD_CAT_ID": 30193, "ELEMENT_SET_NO": 999, "REV_AT_EPOCH": 99340, "BSTAR": 0.00071478362, "MEAN_MOTION_DOT": 2.878e-05, "MEAN_MOTION_DDOT": 0}, "tle": {"line1": "1 30193U 99025VA  25358.72504166  .00002878  00000+0  71478-3 0  9999", "line2": "2 30193  98.7567 267.3882 0107604  97.2086 292.0890 14.49180856993407"}}, "geometry": {"type": "Point", "coordinates": [-90.96172423787154, -6.07839049417984]}}]}